NORAD_CAT_ID,OBJECT_NAME,OBJECT_TYPE,EPOCH,MEAN_MOTION,ECCENTRICITY,INCLINATION,RA_OF_ASC_NODE,ARG_OF_PERICENTER,MEAN_ANOMALY,BSTAR,MEAN_MOTION_DOT,MEAN_MOTION_DDOT,TLE_LINE0,TLE_LINE1,TLE_LINE2,SEMIMAJOR_AXIS,PERIOD,APOGEE,PERIGEE,DECAYED
50803.0,STARLINK-3321,PAYLOAD,2023-10-01 12:29:57,15.08842345,0.0001276,53.2161,205.2422,88.5498,271.564,9.8076e-05,1.273e-05,0.0,0 STARLINK-3321,1 50803U 22001A   23274.52080355  .00001273  00000-0  98076-4 0  9994,2 50803  53.2161 205.2422 0001276  88.5498 271.5640 15.08842345 96023,6917.873,95.437,540.621,538.856,0.0
50803.0,STARLINK-3321,PAYLOAD,2023-10-02 05:59:12,15.08841834,0.0001719,53.2174,201.9694,80.0686,280.05,0.00013197,1.813e-05,0.0,0 STARLINK-3321,1 50803U 22001A   23275.24944691  .00001813  00000-0  13197-3 0  9996,2 50803  53.2174 201.9694 0001719  80.0686 280.0500 15.08841834 97404,6917.875,95.437,540.929,538.551,0.0
50803.0,STARLINK-3321,PAYLOAD,2023-10-02 12:20:44,15.08843682,0.0001445,53.2164,200.7799,85.2122,274.9035,0.00019021,2.741e-05,0.0,0 STARLINK-3321,1 50803U 22001A   23275.51440489  .00002741  00000-0  19021-3 0  9995,2 50803  53.2164 200.7799 0001445  85.2122 274.9035 15.08843682 96175,6917.869,95.437,540.734,538.735,0.0
50803.0,STARLINK-3321,PAYLOAD,2023-10-03 04:14:34,15.08872815,0.0001166,53.2148,197.8068,90.6159,269.4967,0.00074456,0.00011592,0.0,0 STARLINK-3321,1 50803U 22001A   23276.17679164  .00011592  00000-0  74456-3 0  9999,2 50803  53.2148 197.8068 0001166  90.6159 269.4967 15.08872815 97547,6917.78,95.435,540.452,538.838,0.0
50803.0,STARLINK-3321,PAYLOAD,2023-10-03 12:11:31,15.08836395,0.000226,53.2165,196.3234,74.3753,285.7488,-0.00023537,-4.032e-05,0.0,0 STARLINK-3321,1 50803U 22001A   23276.50800469 -.00004032  00000-0 -23537-3 0  9997,2 50803  53.2165 196.3234 0002260  74.3753 285.7488 15.08836395 97597,6917.891,95.438,541.32,538.193,0.0
50803.0,STARLINK-3321,PAYLOAD,2023-10-04 12:02:18,15.08840236,0.000127,53.2154,191.8591,86.7588,273.355,0.00040473,6.159e-05,0.0,0 STARLINK-3321,1 50803U 22001A   23277.50160744  .00006159  00000-0  40473-3 0  9991,2 50803  53.2154 191.8591 0001270  86.7588 273.3550 15.08840236 96472,6917.88,95.438,540.623,538.866,0.0
50803.0,STARLINK-3321,PAYLOAD,2023-10-04 18:23:51,15.08845812,0.0001435,53.2141,190.6709,81.2985,278.8169,0.00071234,0.00011069,0.0,0 STARLINK-3321,1 50803U 22001A   23277.76656904  .00011069  00000-0  71234-3 0  9992,2 50803  53.2141 190.6709 0001435  81.2985 278.8169 15.08845812 97786,6917.863,95.437,540.72,538.735,0.0
50803.0,STARLINK-3321,PAYLOAD,2023-10-05 03:56:09,15.08873041,0.0001283,53.215,188.8869,87.1207,272.9931,0.001542,0.0002436,0.0,0 STARLINK-3321,1 50803U 22001A   23278.16400282  .00024360  00000-0  15420-2 0  9995,2 50803  53.2150 188.8869 0001283  87.1207 272.9931 15.08873041 97849,6917.779,95.435,540.532,538.757,0.0
50803.0,STARLINK-3321,PAYLOAD,2023-10-05 23:00:47,15.08851657,0.0001542,53.2151,185.3185,109.8282,250.2877,0.00051999,8e-05,0.0,0 STARLINK-3321,1 50803U 22001A   23278.95888552  .00008000  00000-0  51999-3 0  9997,2 50803  53.2151 185.3185 0001542 109.8282 250.2877 15.08851657 96695,6917.845,95.437,540.776,538.643,0.0
50803.0,STARLINK-3321,PAYLOAD,2023-10-06 00:36:10,15.08852131,0.0001365,53.2151,185.0219,93.5215,266.5933,0.00064144,9.939e-05,0.0,0 STARLINK-3321,1 50803U 22001A   23279.02512631  .00009939  00000-0  64144-3 0  9996,2 50803  53.2151 185.0219 0001365  93.5215 266.5933 15.08852131 97971,6917.843,95.437,540.653,538.764,0.0
50803.0,STARLINK-3321,PAYLOAD,2023-10-06 03:46:57,15.0884995,0.0001456,53.216,184.4264,95.1069,265.009,0.00053551,8.247e-05,0.0,0 STARLINK-3321,1 50803U 22001A   23279.15760606  .00008247  00000-0  53551-3 0  9998,2 50803  53.2160 184.4264 0001456  95.1069 265.0090 15.08849950 96725,6917.85,95.437,540.722,538.708,0.0
50803.0,STARLINK-3321,PAYLOAD,2023-10-06 21:16:12,15.08838088,0.0001633,53.2163,181.1549,106.1172,254.0,0.00035685,5.396e-05,0.0,0 STARLINK-3321,1 50803U 22001A   23279.88625513  .00005396  00000-0  35685-3 0  9995,2 50803  53.2163 181.1549 0001633 106.1172 254.0000 15.08838088 96834,6917.886,95.438,540.881,538.622,0.0
50803.0,STARLINK-3321,PAYLOAD,2023-10-07 00:26:58,15.08836592,0.0001422,53.2156,180.5617,87.2185,272.897,0.0013102,0.00020623,0.0,0 STARLINK-3321,1 50803U 22001A   23280.01873783  .00020623  00000-0  13102-2 0  9995,2 50803  53.2156 180.5617 0001422  87.2185 272.8970 15.08836592 98120,6917.891,95.438,540.74,538.772,0.0
50803.0,STARLINK-3321,PAYLOAD,2023-10-07 13:10:04,15.08842285,0.0001615,53.2159,178.1853,92.7066,267.4111,0.0007394,0.000115,0.0,0 STARLINK-3321,1 50803U 22001A   23280.54865876  .00011500  00000-0  73940-3 0  9998,2 50803  53.2159 178.1853 0001615  92.7066 267.4111 15.08842285 96931,6917.873,95.437,540.856,538.621,0.0
50803.0,STARLINK-3321,PAYLOAD,2023-10-07 22:42:22,15.08841765,0.000139,53.2159,176.3996,89.7257,270.3895,0.0010396,0.00016297,0.0,0 STARLINK-3321,1 50803U 22001A   23280.94609877  .00016297  00000-0  10396-2 0  9992,2 50803  53.2159 176.3996 0001390  89.7257 270.3895 15.08841765 96997,6917.875,95.437,540.702,538.778,0.0
50803.0,STARLINK-3321,PAYLOAD,2023-10-08 09:50:04,15.08858888,0.0001413,53.2167,174.3167,82.9093,277.2059,0.0011557,0.00018162,0.0,0 STARLINK-3321,1 50803U 22001A   23281.40977597  .00018162  00000-0  11557-2 0  9994,2 50803  53.2167 174.3167 0001413  82.9093 277.2059 15.08858888 97064,6917.823,95.436,540.665,538.71,0.0
50803.0,STARLINK-3321,PAYLOAD,2023-10-08 17:47:00,15.08849325,0.0001466,53.2162,172.8313,94.9491,265.1669,0.0005189,7.982e-05,0.0,0 STARLINK-3321,1 50803U 22001A   23281.74097522  .00007982  00000-0  51890-3 0  9995,2 50803  53.2162 172.8313 0001466  94.9491 265.1669 15.08849325 98383,6917.852,95.437,540.731,538.703,0.0
50803.0,STARLINK-3321,PAYLOAD,2023-10-08 20:57:46,15.08855364,0.0001333,53.2163,172.2385,104.7788,255.3351,0.00062499,9.677e-05,0.0,0 STARLINK-3321,1 50803U 22001A   23281.87345303  .00009677  00000-0  62499-3 0  9992,2 50803  53.2163 172.2385 0001333 104.7788 255.3351 15.08855364 97130,6917.833,95.437,540.621,538.776,0.0
50803.0,STARLINK-3321,PAYLOAD,2023-10-09 00:08:32,15.08862137,0.0001465,53.2163,171.6423,97.6936,262.4223,0.00077773,0.00012119,0.0,0 STARLINK-3321,1 50803U 22001A   23282.00593102  .00012119  00000-0  77773-3 0  9996,2 50803  53.2163 171.6423 0001465  97.6936 262.4223 15.08862137 98423,6917.813,95.436,540.691,538.664,0.0
50803.0,STARLINK-3321,PAYLOAD,2023-10-09 09:40:51,15.08854579,0.0001433,53.2158,169.8593,80.5149,279.6005,0.00045126,6.904e-05,0.0,0 STARLINK-3321,1 50803U 22001A   23282.40337048  .00006904  00000-0  45126-3 0  9997,2 50803  53.2158 169.8593 0001433  80.5149 279.6005 15.08854579 97211,6917.836,95.437,540.692,538.71,0.0
50803.0,STARLINK-3321,PAYLOAD,2023-10-09 20:48:33,15.08836128,0.000113,53.2155,167.7762,86.4234,273.6887,1.7677e-05,-6e-08,0.0,0 STARLINK-3321,1 50803U 22001A   23282.86705418 -.00000006  00000-0  17677-4 0  9996,2 50803  53.2155 167.7762 0001130  86.4234 273.6887 15.08836128 97286,6917.892,95.438,540.539,538.976,0.0
50803.0,STARLINK-3321,PAYLOAD,2023-10-10 01:34:43,15.08847218,0.0001308,53.2157,166.884,80.5654,279.5486,0.0023666,0.00037585,0.0,0 STARLINK-3321,1 50803U 22001A   23283.06577596  .00037585  00000-0  23666-2 0  9997,2 50803  53.2157 166.8840 0001308  80.5654 279.5486 15.08847218 98589,6917.858,95.437,540.628,538.818,0.0
50803.0,STARLINK-3321,PAYLOAD,2023-10-10 09:31:38,15.08844963,0.0001157,53.2158,165.397,92.5994,267.5131,0.0011427,0.00017947,0.0,0 STARLINK-3321,1 50803U 22001A   23283.39697661  .00017947  00000-0  11427-2 0  9991,2 50803  53.2158 165.3970 0001157  92.5994 267.5131 15.08844963 98634,6917.865,95.437,540.531,538.93,0.0
50803.0,STARLINK-3321,PAYLOAD,2023-10-10 20:39:20,15.08843197,0.0001054,53.2161,163.316,98.7549,261.3563,0.00096536,0.0001511,0.0,0 STARLINK-3321,1 50803U 22001A   23283.86065766  .00015110  00000-0  96536-3 0  9993,2 50803  53.2161 163.3160 0001054  98.7549 261.3563 15.08843197 97433,6917.871,95.437,540.465,539.006,0.0
50803.0,STARLINK-3321,PAYLOAD,2023-10-11 01:25:29,15.08857677,0.0001298,53.2157,162.4218,97.5708,262.5432,0.00095789,0.00014997,0.0,0 STARLINK-3321,1 50803U 22001A   23284.05937461  .00014997  00000-0  95789-3 0  9996,2 50803  53.2157 162.4218 0001298  97.5708 262.5432 15.08857677 98736,6917.826,95.436,540.589,538.793,0.0
50803.0,STARLINK-3321,PAYLOAD,2023-10-11 09:22:26,15.08840368,0.0001647,53.2159,160.9372,86.6274,273.4906,0.00033729,5.084e-05,0.0,0 STARLINK-3321,1 50803U 22001A   23284.39057970  .00005084  00000-0  33729-3 0  9994,2 50803  53.2159 160.9372 0001647  86.6274 273.4906 15.08840368 98788,6917.879,95.438,540.884,538.605,0.0
50803.0,STARLINK-3321,PAYLOAD,2023-10-12 09:13:13,15.0884262,0.000164,53.2169,156.4733,98.9321,261.1856,0.00030878,4.63e-05,0.0,0 STARLINK-3321,1 50803U 22001A   23285.38418093  .00004630  00000-0  30878-3 0  9999,2 50803  53.2169 156.4733 0001640  98.9321 261.1856 15.08842620 98930,6917.872,95.437,540.872,538.603,0.0
50803.0,STARLINK-3321,PAYLOAD,2023-10-12 21:56:18,15.08852721,0.000165,53.2169,154.0942,98.6832,261.4347,0.00041611,6.343e-05,0.0,0 STARLINK-3321,1 50803U 22001A   23285.91409755  .00006343  00000-0  41611-3 0  9993,2 50803  53.2169 154.0942 0001650  98.6832 261.4347 15.08852721 97740,6917.842,95.437,540.848,538.565,0.0
50803.0,STARLINK-3321,PAYLOAD,2023-10-13 01:07:04,15.08856031,0.0001697,53.2169,153.4987,102.2042,257.914,0.00049729,7.639e-05,0.0,0 STARLINK-3321,1 50803U 22001A   23286.04657601  .00007639  00000-0  49729-3 0  9990,2 50803  53.2169 153.4987 0001697 102.2042 257.9140 15.08856031 97769,6917.831,95.437,540.87,538.522,0.0
50803.0,STARLINK-3321,PAYLOAD,2023-10-13 18:36:18,15.08848477,0.0001624,53.2164,150.2286,102.2381,257.8793,0.0002746,4.086e-05,0.0,0 STARLINK-3321,1 50803U 22001A   23286.77521787  .00004086  00000-0  27460-3 0  9996,2 50803  53.2164 150.2286 0001624 102.2381 257.8793 15.08848477 99149,6917.854,95.437,540.843,538.596,0.0
